{"type": "FeatureCollection", "features": [ {"type": "Feature", "properties": {"norad_id": 38779, "name": "GSAT-10 (GAGAN/PRN 128)", "group": "gnss", "lat": -0.04705871800414492, "lon": 171.38973523812138, "alt_km": 35780.966347264104, "timestamp": "2025-12-27T23:26:37.604438+00:00", "meta": {"OBJECT_NAME": "GSAT-10 (GAGAN/PRN 128)", "OBJECT_ID": "2012-051B", "EPOCH": "2025-12-26T17:34:19.233984", "MEAN_MOTION": 1.00270579, "ECCENTRICITY": 0.00020538, "INCLINATION": 0.0583, "RA_OF_ASC_NODE": 261.5664, "ARG_OF_PERICENTER": 219.4554, "MEAN_ANOMALY": 321.0592, "EPHEMERIS_TYPE": 0, "CLASSIFICATION_TYPE": "U", "NORAD_CAT_ID": 38779, "ELEMENT_SET_NO": 999, "REV_AT_EPOCH": 4836, "BSTAR": 0, "MEAN_MOTION_DOT": -1.43e-06, "MEAN_MOTION_DDOT": 0}, "tle": {"line1": "1 38779U 12051B   25360.73216706 -.00000143  00000+0  00000+0 0  9998", "line2": "2 38779   0.0583 261.5664 0002053 219.4554 321.0592  1.00270579 48366"}}, "geometry": {"type": "Point", "coordinates": [171.38973523812138, -0.04705871800414492]}}, {"type": "Feature", "properties": {"norad_id": 38833, "name": "GPS BIIF-3  (PRN 24)", "group": "gnss", "lat": 41.04797300128629, "lon": -69.42870147705094, "alt_km": 19944.296086832568, "timestamp": "2025-12-27T23:26:37.604450+00:00", "meta": {"OBJECT_NAME": "GPS BIIF-3  (PRN 24)", "OBJECT_ID": "2012-053A", "EPOCH": "2025-12-26T07:30:08.502624", "MEAN_MOTION": 2.00565043, "ECCENTRICITY": 0.0176105, "INCLINATION": 53.56, "RA_OF_ASC_NODE": 150.6829, "ARG_OF_PERICENTER": 64.189, "MEAN_ANOMALY": 297.6002, "EPHEMERIS_TYPE": 0, "CLASSIFICATION_TYPE": "U", "NORAD_CAT_ID": 38833, "ELEMENT_SET_NO": 999, "REV_AT_EPOCH": 9597, "BSTAR": 0, "MEAN_MOTION_DOT": 9.8e-07, "MEAN_MOTION_DDOT": 0}, "tle": {"line1": "1 38833U 12053A   25360.31259841  .00000098  00000+0  00000+0 0  9990", "line2": "2 38833  53.5600 150.6829 0176105  64.1890 297.6002  2.00565043 95976"}}, "geometry": {"type": "Point", "coordinates": [-69.42870147705094, 41.04797300128629]}}, {"type": "Feature", "properties": {"norad_id": 38857, "name": "GSAT0103 (GALILEO-FM3)", "group": "gnss", "lat": -37.70174074955073, "lon": -41.95787642587016, "alt_km": 23220.26760590033, "timestamp": "2025-12-27T23:26:37.604461+00:00", "meta": {"OBJECT_NAME": "GSAT0103 (GALILEO-FM3)", "OBJECT_ID": "2012-055A", "EPOCH": "2025-12-22T21:54:43.252704", "MEAN_MOTION": 1.70473351, "ECCENTRICITY": 0.0002995, "INCLINATION": 55.698, "RA_OF_ASC_NODE": 106.3873, "ARG_OF_PERICENTER": 269.858, "MEAN_ANOMALY": 90.0891, "EPHEMERIS_TYPE": 0, "CLASSIFICATION_TYPE": "U", "NORAD_CAT_ID": 38857, "ELEMENT_SET_NO": 999, "REV_AT_EPOCH": 8200, "BSTAR": 0, "MEAN_MOTION_DOT": 1e-07, "MEAN_MOTION_DDOT": 0}, "tle": {"line1": "1 38857U 12055A   25356.91300061  .00000010  00000+0  00000+0 0  9994", "line2": "2 38857  55.6980 106.3873 0002995 269.8580  90.0891  1.70473351 82005"}}, "geometry": {"type": "Point", "coordinates": [-41.95787642587016, -37.70174074955073]}}, {"type": "Feature", "properties": {"norad_id": 38953, "name": "BEIDOU-2 G6 (C02)", "group": "gnss", "lat": 3.963069685417982, "lon": 172.35620373597004, "alt_km": 35816.84217748977, "timestamp": "2025-12-27T23:26:37.604473+00:00", "meta": {"OBJECT_NAME": "BEIDOU-2 G6 (C02)", "OBJECT_ID": "2012-059A", "EPOCH": "2025-12-26T23:45:51.765408", "MEAN_MOTION": 1.00274409, "ECCENTRICITY": 0.00079487, "INCLINATION": 3.9833, "RA_OF_ASC_NODE": 75.3705, "ARG_OF_PERICENTER": 293.6669, "MEAN_ANOMALY": 167.1065, "EPHEMERIS_TYPE": 0, "CLASSIFICATION_TYPE": "U", "NORAD_CAT_ID": 38953, "ELEMENT_SET_NO": 999, "REV_AT_EPOCH": 4818, "BSTAR": 0, "MEAN_MOTION_DOT": -1.55e-06, "MEAN_MOTION_DDOT": 0}, "tle": {"line1": "1 38953U 12059A   25360.99018247 -.00000155  00000+0  00000+0 0  9991", "line2": "2 38953   3.9833  75.3705 0007948 293.6669 167.1065  1.00274409 48186"}}, "geometry": {"type": "Point", "coordinates": [172.35620373597004, 3.963069685417982]}}, {"type": "Feature", "properties": {"norad_id": 38977, "name": "LUCH 5B (SDCM/PRN 125)", "group": "gnss", "lat": 3.52622438645949, "lon": 71.71517432773902, "alt_km": 35814.311811064494, "timestamp": "2025-12-27T23:26:37.604484+00:00", "meta": {"OBJECT_NAME": "LUCH 5B (SDCM/PRN 125)", "OBJECT_ID": "2012-061A", "EPOCH": "2025-12-27T09:29:47.959008", "MEAN_MOTION": 1.00271214, "ECCENTRICITY": 0.0006751, "INCLINATION": 10.1104, "RA_OF_ASC_NODE": 51.5636, "ARG_OF_PERICENTER": 196.7881, "MEAN_ANOMALY": 333.8901, "EPHEMERIS_TYPE": 0, "CLASSIFICATION_TYPE": "U", "NORAD_CAT_ID": 38977, "ELEMENT_SET_NO": 999, "REV_AT_EPOCH": 4788, "BSTAR": 0, "MEAN_MOTION_DOT": -1.21e-06, "MEAN_MOTION_DDOT": 0}, "tle": {"line1": "1 38977U 12061A   25361.39569397 -.00000121  00000+0  00000+0 0  9995", "line2": "2 38977  10.1104  51.5636 0006751 196.7881 333.8901  1.00271214 47880"}}, "geometry": {"type": "Point", "coordinates": [71.71517432773902, 3.52622438645949]}}, {"type": "Feature", "properties": {"norad_id": 39155, "name": "COSMOS 2485 (747)", "group": "gnss", "lat": -64.97760956237771, "lon": -21.018434789870177, "alt_km": 19084.10110888064, "timestamp": "2025-12-27T23:26:37.604496+00:00", "meta": {"OBJECT_NAME": "COSMOS 2485 (747)", "OBJECT_ID": "2013-019A", "EPOCH": "2025-12-26T16:36:31.892256", "MEAN_MOTION": 2.13103192, "ECCENTRICITY": 0.0025021, "INCLINATION": 65.3204, "RA_OF_ASC_NODE": 79.3983, "ARG_OF_PERICENTER": 230.593, "MEAN_ANOMALY": 129.2312, "EPHEMERIS_TYPE": 0, "CLASSIFICATION_TYPE": "U", "NORAD_CAT_ID": 39155, "ELEMENT_SET_NO": 999, "REV_AT_EPOCH": 9860, "BSTAR": 0, "MEAN_MOTION_DOT": -8e-08, "MEAN_MOTION_DDOT": 0}, "tle": {"line1": "1 39155U 13019A   25360.69203579 -.00000008  00000+0  00000+0 0  9991", "line2": "2 39155  65.3204  79.3983 0025021 230.5930 129.2312  2.13103192 98601"}}, "geometry": {"type": "Point", "coordinates": [-21.018434789870177, -64.97760956237771]}}, {"type": "Feature", "properties": {"norad_id": 39166, "name": "GPS BIIF-4  (PRN 27)", "group": "gnss", "lat": -32.48956436562857, "lon": 122.79139233157015, "alt_km": 20551.061378590046, "timestamp": "2025-12-27T23:26:37.604507+00:00", "meta": {"OBJECT_NAME": "GPS BIIF-4  (PRN 27)", "OBJECT_ID": "2013-023A", "EPOCH": "2025-12-26T04:14:33.249408", "MEAN_MOTION": 2.00564526, "ECCENTRICITY": 0.0138718, "INCLINATION": 54.6404, "RA_OF_ASC_NODE": 276.0219, "ARG_OF_PERICENTER": 48.7908, "MEAN_ANOMALY": 312.4421, "EPHEMERIS_TYPE": 0, "CLASSIFICATION_TYPE": "U", "NORAD_CAT_ID": 39166, "ELEMENT_SET_NO": 999, "REV_AT_EPOCH": 9241, "BSTAR": 0, "MEAN_MOTION_DOT": -2.2e-07, "MEAN_MOTION_DDOT": 0}, "tle": {"line1": "1 39166U 13023A   25360.17677372 -.00000022  00000+0  00000+0 0  9993", "line2": "2 39166  54.6404 276.0219 0138718  48.7908 312.4421  2.00564526 92414"}}, "geometry": {"type": "Point", "coordinates": [122.79139233157015, -32.48956436562857]}}, {"type": "Feature", "properties": {"norad_id": 39199, "name": "IRNSS-1A", "group": "gnss", "lat": 34.27238182269881, "lon": 140.11010298647975, "alt_km": 35853.84735371833, "timestamp": "2025-12-27T23:26:37.604518+00:00", "meta": {"OBJECT_NAME": "IRNSS-1A", "OBJECT_ID": "2013-034A", "EPOCH": "2025-12-24T18:29:47.559840", "MEAN_MOTION": 1.00273605, "ECCENTRICITY": 0.00238143, "INCLINATION": 35.3368, "RA_OF_ASC_NODE": 66.3779, "ARG_OF_PERICENTER": 212.7296, "MEAN_ANOMALY": 146.6998, "EPHEMERIS_TYPE": 0, "CLASSIFICATION_TYPE": "U", "NORAD_CAT_ID": 39199, "ELEMENT_SET_NO": 999, "REV_AT_EPOCH": 4561, "BSTAR": 0, "MEAN_MOTION_DOT": 7.9e-07, "MEAN_MOTION_DDOT": 0}, "tle": {"line1": "1 39199U 13034A   25358.77068935  .00000079  00000+0  00000+0 0  9994", "line2": "2 39199  35.3368  66.3779 0023814 212.7296 146.6998  1.00273605 45619"}}, "geometry": {"type": "Point", "coordinates": [140.11010298647975, 34.27238182269881]}}, {"type": "Feature", "properties": {"norad_id": 39533, "name": "GPS BIIF-5  (PRN 30)", "group": "gnss", "lat": -33.322147483442045, "lon": 5.316030893794299, "alt_km": 19976.676394451333, "timestamp": "2025-12-27T23:26:37.604529+00:00", "meta": {"OBJECT_NAME": "GPS BIIF-5  (PRN 30)", "OBJECT_ID": "2014-008A", "EPOCH": "2025-12-23T16:16:25.020768", "MEAN_MOTION": 2.00548852, "ECCENTRICITY": 0.00795532, "INCLINATION": 53.5993, "RA_OF_ASC_NODE": 156.4877, "ARG_OF_PERICENTER": 225.9161, "MEAN_ANOMALY": 133.4108, "EPHEMERIS_TYPE": 0, "CLASSIFICATION_TYPE": "U", "NORAD_CAT_ID": 39533, "ELEMENT_SET_NO": 999, "REV_AT_EPOCH": 8616, "BSTAR": 0, "MEAN_MOTION_DOT": 8.2e-07, "MEAN_MOTION_DDOT": 0}, "tle": {"line1": "1 39533U 14008A   25357.67806737  .00000082  00000+0  00000+0 0  9990", "line2": "2 39533  53.5993 156.4877 0079553 225.9161 133.4108  2.00548852 86167"}}, "geometry": {"type": "Point", "coordinates": [5.316030893794299, -33.322147483442045]}}, {"type": "Feature", "properties": {"norad_id": 39617, "name": "ASTRA 5B (EGNOS/PRN 123)", "group": "gnss", "lat": 0.06530028512077578, "lon": 111.831810887044, "alt_km": 35805.85884258891, "timestamp": "2025-12-27T23:26:37.604543+00:00", "meta": {"OBJECT_NAME": "ASTRA 5B (EGNOS/PRN 123)", "OBJECT_ID": "2014-011B", "EPOCH": "2025-12-27T11:23:52.033920", "MEAN_MOTION": 1.00271936, "ECCENTRICITY": 0.0004775, "INCLINATION": 0.0467, "RA_OF_ASC_NODE": 20.7902, "ARG_OF_PERICENTER": 260.8589, "MEAN_ANOMALY": 9.0146, "EPHEMERIS_TYPE": 0, "CLASSIFICATION_TYPE": "U", "NORAD_CAT_ID": 39617, "ELEMENT_SET_NO": 999, "REV_AT_EPOCH": 4294, "BSTAR": 0, "MEAN_MOTION_DOT": 1.59e-06, "MEAN_MOTION_DDOT": 0}, "tle": {"line1": "1 39617U 14011B   25361.47490780  .00000159  00000+0  00000+0 0  9992", "line2": "2 39617   0.0467  20.7902 0004775 260.8589   9.0146  1.00271936 42944"}}, "geometry": {"type": "Point", "coordinates": [111.831810887044, 0.06530028512077578]}}]}